NORAD_CAT_ID,OBJECT_NAME,OBJECT_TYPE,EPOCH,MEAN_MOTION,ECCENTRICITY,INCLINATION,RA_OF_ASC_NODE,ARG_OF_PERICENTER,MEAN_ANOMALY,BSTAR,MEAN_MOTION_DOT,MEAN_MOTION_DDOT,TLE_LINE0,TLE_LINE1,TLE_LINE2,SEMIMAJOR_AXIS,PERIOD,APOGEE,PERIGEE,DECAYED
55425.0,STARLINK-5615,PAYLOAD,2023-12-28 06:00:37,14.98326467,0.0002598,70.0006,307.7285,262.7131,97.3732,3.1051e-05,2.78e-06,0.0,0 STARLINK-5615,1 55425U 23014AL  23362.25043030  .00000278  00000-0  31051-4 0  9995,2 55425  70.0006 307.7285 0002598 262.7131  97.3732 14.98326467 51360,6950.204,96.107,573.874,570.263,0.0
55425.0,STARLINK-5615,PAYLOAD,2023-12-28 20:25:49,14.98328766,0.0002323,70.0015,306.2168,262.6657,97.4238,-7.9462e-06,-1.88e-06,0.0,0 STARLINK-5615,1 55425U 23014AL  23362.85127063 -.00000188  00000-0 -79462-5 0  9991,2 55425  70.0015 306.2168 0002323 262.6657  97.4238 14.98328766 51458,6950.197,96.107,573.676,570.447,0.0
55425.0,STARLINK-5615,PAYLOAD,2023-12-29 02:50:22,14.98327992,0.0002486,70.0007,305.5422,264.8377,95.2498,-1.0245e-05,-2.15e-06,0.0,0 STARLINK-5615,1 55425U 23014AL  23363.11831145 -.00000215  00000-0 -10245-4 0  9998,2 55425  70.0007 305.5422 0002486 264.8377  95.2498 14.98327992 50551,6950.199,96.107,573.792,570.336,0.0
55425.0,STARLINK-5615,PAYLOAD,2023-12-29 06:02:36,14.98348438,0.0002182,70.0024,305.2079,242.7916,117.3021,0.00023451,2.708e-05,0.0,0 STARLINK-5615,1 55425U 23014AL  23363.25181200  .00002708  00000-0  23451-3 0  9992,2 55425  70.0024 305.2079 0002182 242.7916 117.3021 14.98348438 50570,6950.136,96.106,573.517,570.484,0.0
55425.0,STARLINK-5615,PAYLOAD,2023-12-29 22:03:58,14.98318771,0.0003327,70.0,303.5199,282.5153,77.5633,-0.00013931,-1.754e-05,0.0,0 STARLINK-5615,1 55425U 23014AL  23363.91942730 -.00001754  00000-0 -13931-3 0  9992,2 55425  70.0000 303.5199 0003327 282.5153  77.5633 14.98318771 51614,6950.228,96.108,574.405,569.78,0.0
55425.0,STARLINK-5615,PAYLOAD,2023-12-30 02:52:22,14.98317057,0.0002666,70.0001,303.0151,262.7555,97.3301,-0.00016371,-2.045e-05,0.0,0 STARLINK-5615,1 55425U 23014AL  23364.11970881 -.00002045  00000-0 -16371-3 0  9998,2 55425  70.0001 303.0151 0002666 262.7555  97.3301 14.98317057 50706,6950.233,96.108,573.951,570.245,0.0
55425.0,STARLINK-5615,PAYLOAD,2023-12-30 06:04:38,14.98318913,0.0002663,70.0002,302.6789,264.7011,95.3844,-0.00013456,-1.698e-05,0.0,0 STARLINK-5615,1 55425U 23014AL  23364.25322749 -.00001698  00000-0 -13456-3 0  9991,2 55425  70.0002 302.6789 0002663 264.7011  95.3844 14.98318913 51663,6950.227,96.108,573.943,570.241,0.0
55425.0,STARLINK-5615,PAYLOAD,2023-12-30 22:05:59,14.98317058,0.0002836,70.0,300.9948,276.2597,83.8239,-0.00013364,-1.687e-05,0.0,0 STARLINK-5615,1 55425U 23014AL  23364.92083170 -.00001687  00000-0 -13364-3 0  9993,2 55425  70.0000 300.9948 0002836 276.2597  83.8239 14.98317058 51768,6950.233,96.108,574.069,570.127,0.0
55425.0,STARLINK-5615,PAYLOAD,2023-12-31 02:54:24,14.98317652,0.0002754,70.0,300.4896,274.4637,85.6207,-0.00011069,-1.413e-05,0.0,0 STARLINK-5615,1 55425U 23014AL  23365.12111198 -.00001413  00000-0 -11069-3 0  9995,2 55425  70.0000 300.4896 0002754 274.4637  85.6207 14.98317652 50853,6950.231,96.108,574.01,570.182,0.0
55425.0,STARLINK-5615,PAYLOAD,2023-12-31 22:08:00,14.98317423,0.0002929,69.9997,298.4697,272.7951,87.2873,0.00012529,1.402e-05,0.0,0 STARLINK-5615,1 55425U 23014AL  23365.92222313  .00001402  00000-0  12529-3 0  9993,2 55425  69.9997 298.4697 0002929 272.7951  87.2873 14.98317423 51915,6950.232,96.108,574.133,570.061,0.0
55425.0,STARLINK-5615,PAYLOAD,2024-01-01 02:56:24,14.98319863,0.0002622,70.0003,297.9657,266.5425,93.5434,0.00015392,1.744e-05,0.0,0 STARLINK-5615,1 55425U 23014AL  24001.12250214  .00001744  00000-0  15392-3 0  9994,2 55425  70.0003 297.9657 0002622 266.5425  93.5434 14.98319863 51006,6950.224,96.108,573.912,570.267,0.0
55425.0,STARLINK-5615,PAYLOAD,2024-01-01 06:08:40,14.98323759,0.0002786,69.9998,297.6281,272.352,87.732,0.00021263,2.445e-05,0.0,0 STARLINK-5615,1 55425U 23014AL  24001.25601948  .00002445  00000-0  21263-3 0  9995,2 55425  69.9998 297.6281 0002786 272.3520  87.7320 14.98323759 51961,6950.212,96.107,574.014,570.141,0.0
55425.0,STARLINK-5615,PAYLOAD,2024-01-01 22:10:01,14.98322113,0.0002705,70.0002,295.9454,267.0813,93.0036,0.00015221,1.723e-05,0.0,0 STARLINK-5615,1 55425U 23014AL  24001.92362420  .00001723  00000-0  15221-3 0  9993,2 55425  70.0002 295.9454 0002705 267.0813  93.0036 14.98322113 52069,6950.217,96.108,573.962,570.202,0.0
55425.0,STARLINK-5615,PAYLOAD,2024-01-02 02:58:25,14.98324396,0.0002817,70.0003,295.4405,271.341,88.7427,0.00015638,1.773e-05,0.0,0 STARLINK-5615,1 55425U 23014AL  24002.12390336  .00001773  00000-0  15638-3 0  9990,2 55425  70.0003 295.4405 0002817 271.3410  88.7427 14.98324396 51155,6950.21,96.107,574.033,570.117,0.0
55425.0,STARLINK-5615,PAYLOAD,2024-01-02 06:10:41,14.98326131,0.0002643,70.0003,295.1038,266.8405,93.2451,0.00017551,2.002e-05,0.0,0 STARLINK-5615,1 55425U 23014AL  24002.25742202  .00002002  00000-0  17551-3 0  9999,2 55425  70.0003 295.1038 0002643 266.8405  93.2451 14.98326131 52118,6950.205,96.107,573.907,570.233,0.0
55425.0,STARLINK-5615,PAYLOAD,2024-01-02 22:12:02,14.98326542,0.000244,70.0007,293.4213,254.0775,106.0115,-3.3787e-05,-4.96e-06,0.0,0 STARLINK-5615,1 55425U 23014AL  24002.92502794 -.00000496  00000-0 -33787-4 0  9990,2 55425  70.0007 293.4213 0002440 254.0775 106.0115 14.98326542 52219,6950.204,96.107,573.764,570.373,0.0
55425.0,STARLINK-5615,PAYLOAD,2024-01-03 03:00:26,14.98325859,0.0002583,70.0004,292.9162,253.3687,106.7189,-5.4518e-05,-7.43e-06,0.0,0 STARLINK-5615,1 55425U 23014AL  24003.12530987 -.00000743  00000-0 -54518-4 0  9998,2 55425  70.0004 292.9162 0002583 253.3687 106.7189 14.98325859 51302,6950.206,96.107,573.866,570.275,0.0
55425.0,STARLINK-5615,PAYLOAD,2024-01-03 04:36:34,14.98330939,0.0002762,69.9996,292.7477,272.8832,87.2011,-2.4204e-05,-3.82e-06,0.0,0 STARLINK-5615,1 55425U 23014AL  24003.19206674 -.00000382  00000-0 -24204-4 0  9996,2 55425  69.9996 292.7477 0002762 272.8832  87.2011 14.98330939 52250,6950.19,96.107,573.975,570.135,0.0
55425.0,STARLINK-5615,PAYLOAD,2024-01-03 22:14:03,14.98329809,0.0002703,69.9992,290.893,260.8611,99.2242,-2.6938e-05,-4.14e-06,0.0,0 STARLINK-5615,1 55425U 23014AL  24003.92642651 -.00000414  00000-0 -26938-4 0  9998,2 55425  69.9992 290.8930 0002703 260.8611  99.2242 14.98329809 52361,6950.193,96.107,573.937,570.18,0.0
55425.0,STARLINK-5615,PAYLOAD,2024-01-04 03:02:27,14.98331432,0.0002761,70.0001,290.3912,262.9364,97.1481,1.1893e-05,4.9e-07,0.0,0 STARLINK-5615,1 55425U 23014AL  24004.12670420  .00000049  00000-0  11893-4 0  9992,2 55425  70.0001 290.3912 0002761 262.9364  97.1481 14.98331432 51458,6950.188,96.107,573.972,570.135,0.0
55425.0,STARLINK-5615,PAYLOAD,2024-01-04 04:38:35,14.98334299,0.000271,69.9995,290.2208,264.5333,95.5517,2.8287e-05,2.45e-06,0.0,0 STARLINK-5615,1 55425U 23014AL  24004.19346206  .00000245  00000-0  28287-4 0  9994,2 55425  69.9995 290.2208 0002710 264.5333  95.5517 14.98334299 52404,6950.18,96.107,573.928,570.161,0.0
55425.0,STARLINK-5615,PAYLOAD,2024-01-04 22:16:03,14.98329434,0.0002858,69.9995,288.3703,269.5851,90.4981,5.5825e-05,5.73e-06,0.0,0 STARLINK-5615,1 55425U 23014AL  24004.92782374  .00000573  00000-0  55825-4 0  9997,2 55425  69.9995 288.3703 0002858 269.5851  90.4981 14.98329434 52511,6950.195,96.107,574.046,570.073,0.0
55425.0,STARLINK-5615,PAYLOAD,2024-01-05 04:40:35,14.98329657,0.0002778,69.9996,287.697,270.2812,89.8029,0.0001871,2.14e-05,0.0,0 STARLINK-5615,1 55425U 23014AL  24005.19486003  .00002140  00000-0  18710-3 0  9990,2 55425  69.9996 287.6970 0002778 270.2812  89.8029 14.98329657 51619,6950.194,96.107,573.99,570.128,0.0
55425.0,STARLINK-5615,PAYLOAD,2024-01-05 19:05:48,14.98323386,0.0002423,70.0004,286.1817,268.241,91.8471,7.5529e-05,8.08e-06,0.0,0 STARLINK-5615,1 55425U 23014AL  24005.79570571  .00000808  00000-0  75529-4 0  9991,2 55425  70.0004 286.1817 0002423 268.2410  91.8471 14.98323386 51701,6950.213,96.107,573.762,570.394,0.0
55425.0,STARLINK-5615,PAYLOAD,2024-01-05 22:18:05,14.98326223,0.0002565,70.0,285.846,258.3304,101.7567,-6.5701e-05,-8.77e-06,0.0,0 STARLINK-5615,1 55425U 23014AL  24005.92922792 -.00000877  00000-0 -65701-4 0  9991,2 55425  70.0000 285.8460 0002565 258.3304 101.7567 14.98326223 52662,6950.205,96.107,573.852,570.287,0.0
55425.0,STARLINK-5615,PAYLOAD,2024-01-06 04:42:37,14.98326049,0.0002621,70.0,285.1728,263.6083,96.4778,-2.665e-05,-4.11e-06,0.0,0 STARLINK-5615,1 55425U 23014AL  24006.19626764 -.00000411  00000-0 -26650-4 0  9995,2 55425  70.0000 285.1728 0002621 263.6083  96.4778 14.98326049 52703,6950.205,96.107,573.892,570.248,0.0
55425.0,STARLINK-5615,PAYLOAD,2024-01-06 19:07:49,14.98330081,0.0002779,69.9993,283.6575,264.3619,95.7223,-5.7856e-05,-7.83e-06,0.0,0 STARLINK-5615,1 55425U 23014AL  24006.79710556 -.00000783  00000-0 -57856-4 0  9998,2 55425  69.9993 283.6575 0002779 264.3619  95.7223 14.98330081 51854,6950.193,96.107,573.989,570.126,0.0
55425.0,STARLINK-5615,PAYLOAD,2024-01-06 22:20:05,14.98369041,0.0002696,69.9998,283.3216,263.4098,96.6755,-0.0006518,-7.869e-05,0.0,0 STARLINK-5615,1 55425U 23014AL  24006.93061920 -.00007869  00000-0 -65180-3 0  9998,2 55425  69.9998 283.3216 0002696 263.4098  96.6755 14.98369041 52812,6950.072,96.104,573.811,570.063,0.0
55425.0,STARLINK-5615,PAYLOAD,2024-01-07 03:08:29,14.98352416,0.000244,69.9998,282.8166,259.6197,100.4687,-0.00035127,-4.284e-05,0.0,0 STARLINK-5615,1 55425U 23014AL  24007.13089838 -.00004284  00000-0 -35127-3 0  9995,2 55425  69.9998 282.8166 0002440 259.6197 100.4687 14.98352416 51909,6950.124,96.106,573.684,570.293,0.0
55425.0,STARLINK-5615,PAYLOAD,2024-01-07 04:44:37,14.98355443,0.0002467,69.9997,282.6491,258.6065,101.4817,-0.00039366,-4.79e-05,0.0,0 STARLINK-5615,1 55425U 23014AL  24007.19765663 -.00004790  00000-0 -39366-3 0  9999,2 55425  69.9997 282.6491 0002467 258.6065 101.4817 14.98355443 52853,6950.114,96.105,573.694,570.265,0.0
